OBJECT_NAME,OBJECT_ID,EPOCH,MEAN_MOTION,ECCENTRICITY,INCLINATION,RA_OF_ASC_NODE,ARG_OF_PERICENTER,MEAN_ANOMALY,EPHEMERIS_TYPE,CLASSIFICATION_TYPE,NORAD_CAT_ID,ELEMENT_SET_NO,REV_AT_EPOCH,BSTAR,MEAN_MOTION_DOT,MEAN_MOTION_DDOT
DMSP 5D-3 F16 (USA 172),2003-048A,2026-07-02T20:47:08.581056,14.14484357,.00081942,98.9886,207.7978,101.2546,309.5150,0,U,28054,999,17170,.27128343E-4,.7E-7,0
METEOSAT-9 (MSG-2),2005-049B,2026-07-02T18:18:46.537632,1.00267373,.00025668,9.3943,54.0128,359.4901,187.7563,0,U,28912,999,715,0,.13E-5,0
DMSP 5D-3 F17 (USA 191),2006-050A,2026-07-02T20:49:19.938432,14.14995026,.00104677,98.7380,190.1168,17.8620,342.2919,0,U,29522,999,1464,.39973615E-4,.34E-6,0
FENGYUN 3A,2008-026A,2026-07-02T20:03:18.362016,14.19574446,.00098817,98.6885,124.3762,83.5691,276.6610,0,U,32958,999,93762,.63361281E-4,.9E-6,0
GOES 14,2009-033A,2026-07-02T19:44:39.373152,1.00105313,.00022294,1.7279,82.8654,26.5013,240.2997,0,U,35491,999,674,0,-.329E-5,0
DMSP 5D-3 F18 (USA 210),2009-057A,2026-07-02T20:09:34.552800,14.14905532,.00104937,98.9045,164.5756,201.0770,158.9972,0,U,35951,999,86180,.15657638E-3,.258E-5,0
EWS-G2 (GOES 15),2010-008A,2026-07-02T20:52:11.744832,1.00268401,.00053722,1.3182,82.6350,46.1653,168.6231,0,U,36411,999,5979,0,.31E-6,0
COMS 1,2010-032A,2026-07-02T20:12:22.906656,0.99169046,.00117665,4.8428,75.1721,13.9478,145.9526,0,U,36744,999,5124,0,-.92E-6,0
FENGYUN 3B,2010-059A,2026-07-03T17:16:28.298208,14.14844885,.00227494,98.9607,230.8039,137.7128,330.6883,0,U,37214,999,80976,.13169728E-3,.21E-5,0
SUOMI NPP,2011-061A,2026-07-03T08:10:50.579616,14.19520652,.0000668,98.7955,125.1067,305.1704,54.9409,0,U,37849,999,76073,.5258176E-4,.66E-6,0
METEOSAT-10 (MSG-3),2012-035B,2026-07-02T07:08:22.761024,1.00269475,.0001613,4.7052,60.9470,15.2569,311.3560,0,U,38552,999,5100,0,.1E-7,0
METOP-B,2012-049A,2026-07-02T19:35:38.287104,14.21443713,.0001303,98.6496,235.0033,327.6021,32.5076,0,U,38771,999,71548,.81599903E-4,.135E-5,0
INSAT-3D,2013-038B,2026-07-02T20:26:20.229792,1.00268722,.00010564,1.9642,82.3574,15.1644,259.4386,0,U,39216,999,4723,0,-.329E-5,0
FENGYUN 3C,2013-052A,2026-07-03T15:38:58.191360,14.15758789,.0014258,98.4996,157.7715,340.8099,19.2538,0,U,39260,999,66089,.63838982E-4,.84E-6,0
METEOR-M 2,2014-037A,2026-07-03T14:48:15.266304,14.21466375,.00058875,98.5123,159.7740,1.7412,358.3785,0,U,40069,999,62165,.8740509E-4,.149E-5,0
HIMAWARI-8,2014-060A,2026-07-02T20:32:04.143264,1.00271871,.00010557,0.0157,5.8561,102.2100,261.5191,0,U,40267,999,4291,0,-.265E-5,0
FENGYUN 2G,2014-090A,2026-07-03T14:24:28.740960,1.00266282,.00035986,5.6782,72.6217,150.5390,14.1289,0,U,40367,999,4216,0,-.292E-5,0
METEOSAT-11 (MSG-4),2015-034A,2026-07-02T19:09:37.241280,1.00267972,.0002235,3.2395,71.0127,349.1023,157.4441,0,U,40732,999,737,0,.71E-6,0
ELEKTRO-L 2,2015-074A,2026-07-03T10:26:36.307680,1.00273590,.0000658,6.7323,70.3254,244.6432,108.5967,0,U,41105,999,3866,0,-.109E-5,0
SENTINEL-3A,2016-011A,2026-07-02T18:50:58.903872,14.26737056,.00014254,98.6243,250.9446,94.5446,265.5897,0,U,41335,999,54028,.74150885E-4,.136E-5,0
INSAT-3DR,2016-054A,2026-07-02T10:54:40.578912,1.00272241,.0010094,0.1421,85.9447,186.2693,245.9301,0,U,41752,999,3597,0,-.66E-6,0
HIMAWARI-9,2016-064A,2026-07-02T16:41:28.737600,1.00268231,.00014383,0.0302,267.9360,225.4185,178.4790,0,U,41836,999,3536,0,-.265E-5,0
GOES 16,2016-071A,2026-07-02T16:54:17.554176,1.00272031,.00005625,0.3771,85.5912,33.2401,310.7945,0,U,41866,999,3525,0,-.8E-6,0
FENGYUN 4A,2016-077A,2026-07-03T12:48:44.677152,1.00275570,.00079346,2.3619,80.1088,157.9627,359.4201,0,U,41882,999,3509,0,-.346E-5,0
CYGFM05,2016-078A,2026-07-02T15:09:48.600000,15.57329564,.00080676,34.9557,158.2652,285.0788,74.9044,0,U,41884,999,53116,.33164595E-3,.25116E-3,0
CYGFM04,2016-078B,2026-07-02T20:57:08.290368,15.62401888,.00064842,34.9318,123.5523,322.0141,38.0127,0,U,41885,999,53145,.39009696E-3,.35933E-3,0
CYGFM02,2016-078C,2026-07-02T20:13:51.940128,15.65546274,.00074021,34.9400,117.8213,325.5179,34.5068,0,U,41886,999,53162,.39734243E-3,.41508E-3,0
CYGFM01,2016-078D,2026-07-02T14:43:41.857824,15.58029354,.00079784,34.9387,159.3160,279.6825,80.2998,0,U,41887,999,53111,.32996749E-3,.25659E-3,0
CYGFM08,2016-078E,2026-07-02T06:58:11.352288,15.60797506,.0008715,34.9423,140.6357,306.3717,53.6204,0,U,41888,999,53133,.36529E-3,.31616E-3,0
CYGFM07,2016-078G,2026-07-02T05:57:59.630112,15.60901001,.0007032,34.9439,129.2429,318.0003,42.0183,0,U,41890,999,53135,.36586E-3,.31773E-3,0
CYGFM03,2016-078H,2026-07-02T20:37:19.569792,15.60926669,.00068717,34.9396,127.1049,310.3425,49.6700,0,U,41891,999,53142,.39723128E-3,.34547E-3,0
